CMOB_L_00005001-01
1 10000U 22129MQ  26075.70052083  .00000000  00000+0  00000-0 0  9991
2 10000  55.0000   0.0000 0000000   0.0000   0.0000  4.93230269    12
CMOB_L_00005001-02
1 10001U 25345AN  26075.70052083  .00000000  00000+0  00000-0 0  9995
2 10001  55.0000   0.0000 0000000   0.0000  30.0000  4.93230269    16
CMOB_L_00005001-03
1 10002U 23356BF  26075.70052083  .00000000  00000+0  00000-0 0  9996
2 10002  55.0000   0.0000 0000000   0.0000  60.0000  4.93230269    10
CMOB_L_00005001-04
1 10003U 22775WQ  26075.70052083  .00000000  00000+0  00000-0 0  9991
2 10003  55.0000   0.0000 0000000   0.0000  90.0000  4.93230269    14
CMOB_L_00005001-05
1 10004U 22539SX  26075.70052083  .00000000  00000+0  00000-0 0  9990
2 10004  55.0000   0.0000 0000000   0.0000 120.0000  4.93230269    19
CMOB_L_00005001-06
1 10005U 26193TV  26075.70052083  .00000000  00000+0  00000-0 0  9991
2 10005  55.0000   0.0000 0000000   0.0000 150.0000  4.93230269    13
CMOB_L_00005001-07
1 10006U 23279YI  26075.70052083  .00000000  00000+0  00000-0 0  9994
2 10006  55.0000   0.0000 0000000   0.0000 180.0000  4.93230269    17
CMOB_L_00005001-08
1 10007U 26401QL  26075.70052083  .00000000  00000+0  00000-0 0  9995
2 10007  55.0000   0.0000 0000000   0.0000 210.0000  4.93230269    12
CMOB_L_00005001-09
1 10008U 22925YQ  26075.70052083  .00000000  00000+0  00000-0 0  9993
2 10008  55.0000   0.0000 0000000   0.0000 240.0000  4.93230269    16
CMOB_L_00005001-10
1 10009U 23510TE  26075.70052083  .00000000  00000+0  00000-0 0  9995
2 10009  55.0000   0.0000 0000000   0.0000 270.0000  4.93230269    10
CMOB_L_00005001-11
1 10010U 26284BO  26075.70052083  .00000000  00000+0  00000-0 0  9998
2 10010  55.0000   0.0000 0000000   0.0000 300.0000  4.93230269    16
CMOB_L_00005001-12
1 10011U 23477UP  26075.70052083  .00000000  00000+0  00000-0 0  9990
2 10011  55.0000   0.0000 0000000   0.0000 330.0000  4.93230269    10
CMOB_L_00005002-01
1 10012U 24049KO  26075.70052083  .00000000  00000+0  00000-0 0  9997
2 10012  55.0000  60.0000 0000000   0.0000  20.0000  4.93230269    13
CMOB_L_00005002-02
1 10013U 25628XA  26075.70052083  .00000000  00000+0  00000-0 0  9992
2 10013  55.0000  60.0000 0000000   0.0000  50.0000  4.93230269    17
CMOB_L_00005002-03
1 10014U 24406EA  26075.70052083  .00000000  00000+0  00000-0 0  9996
2 10014  55.0000  60.0000 0000000   0.0000  80.0000  4.93230269    11
CMOB_L_00005002-04
1 10015U 22965AY  26075.70052083  .00000000  00000+0  00000-0 0  9995
2 10015  55.0000  60.0000 0000000   0.0000 110.0000  4.93230269    16
CMOB_L_00005002-05
1 10016U 22037UY  26075.70052083  .00000000  00000+0  00000-0 0  9996
2 10016  55.0000  60.0000 0000000   0.0000 140.0000  4.93230269    10
CMOB_L_00005002-06
1 10017U 24256HI  26075.70052083  .00000000  00000+0  00000-0 0  9992
2 10017  55.0000  60.0000 0000000   0.0000 170.0000  4.93230269    14
CMOB_L_00005002-07
1 10018U 22685AY  26075.70052083  .00000000  00000+0  00000-0 0  9997
2 10018  55.0000  60.0000 0000000   0.0000 200.0000  4.93230269    19
CMOB_L_00005002-08
1 10019U 25949AG  26075.70052083  .00000000  00000+0  00000-0 0  9994
2 10019  55.0000  60.0000 0000000   0.0000 230.0000  4.93230269    13
CMOB_L_00005002-09
1 10020U 23038ZB  26075.70052083  .00000000  00000+0  00000-0 0  9993
2 10020  55.0000  60.0000 0000000   0.0000 260.0000  4.93230269    18
CMOB_L_00005002-10
1 10021U 22136FP  26075.70052083  .00000000  00000+0  00000-0 0  9992
2 10021  55.0000  60.0000 0000000   0.0000 290.0000  4.93230269    12
CMOB_L_00005002-11
1 10022U 25749EW  26075.70052083  .00000000  00000+0  00000-0 0  9996
2 10022  55.0000  60.0000 0000000   0.0000 320.0000  4.93230269    17
CMOB_L_00005002-12
1 10023U 24436CP  26075.70052083  .00000000  00000+0  00000-0 0  9999
2 10023  55.0000  60.0000 0000000   0.0000 350.0000  4.93230269    11
CMOB_L_00005003-01
1 10024U 25022MW  26075.70052083  .00000000  00000+0  00000-0 0  9992
2 10024  55.0000 120.0000 0000000   0.0000  40.0000  4.93230269    15
CMOB_L_00005003-02
1 10025U 23232ZX  26075.70052083  .00000000  00000+0  00000-0 0  9994
2 10025  55.0000 120.0000 0000000   0.0000  70.0000  4.93230269    19
CMOB_L_00005003-03
1 10026U 24925PO  26075.70052083  .00000000  00000+0  00000-0 0  9995
2 10026  55.0000 120.0000 0000000   0.0000 100.0000  4.93230269    14
CMOB_L_00005003-04
1 10027U 24854A   26075.70052083  .00000000  00000+0  00000-0 0  9997
2 10027  55.0000 120.0000 0000000   0.0000 130.0000  4.93230269    18
CMOB_L_00005003-05
1 10028U 22422LN  26075.70052083  .00000000  00000+0  00000-0 0  9997
2 10028  55.0000 120.0000 0000000   0.0000 160.0000  4.93230269    12
CMOB_L_00005003-06
1 10029U 26712KE  26075.70052083  .00000000  00000+0  00000-0 0  9994
2 10029  55.0000 120.0000 0000000   0.0000 190.0000  4.93230269    16
CMOB_L_00005003-07
1 10030U 26564JQ  26075.70052083  .00000000  00000+0  00000-0 0  9991
2 10030  55.0000 120.0000 0000000   0.0000 220.0000  4.93230269    12
CMOB_L_00005003-08
1 10031U 22757YS  26075.70052083  .00000000  00000+0  00000-0 0  9992
2 10031  55.0000 120.0000 0000000   0.0000 250.0000  4.93230269    16
CMOB_L_00005003-09
1 10032U 22293D   26075.70052083  .00000000  00000+0  00000-0 0  9998
2 10032  55.0000 120.0000 0000000   0.0000 280.0000  4.93230269    10
CMOB_L_00005003-10
1 10033U 22267OW  26075.70052083  .00000000  00000+0  00000-0 0  9990
2 10033  55.0000 120.0000 0000000   0.0000 310.0000  4.93230269    15
CMOB_L_00005003-11
1 10034U 23829EN  26075.70052083  .00000000  00000+0  00000-0 0  9996
2 10034  55.0000 120.0000 0000000   0.0000 340.0000  4.93230269    19
CMOB_L_00005003-12
1 10035U 22240ZF  26075.70052083  .00000000  00000+0  00000-0 0  9993
2 10035  55.0000 120.0000 0000000   0.0000  10.0000  4.93230269    14
CMOB_L_00005004-01
1 10036U 26107RB  26075.70052083  .00000000  00000+0  00000-0 0  9990
2 10036  55.0000 180.0000 0000000   0.0000  60.0000  4.93230269    16
CMOB_L_00005004-02
1 10037U 22296PK  26075.70052083  .00000000  00000+0  00000-0 0  9996
2 10037  55.0000 180.0000 0000000   0.0000  90.0000  4.93230269    10
CMOB_L_00005004-03
1 10038U 23291LF  26075.70052083  .00000000  00000+0  00000-0 0  9993
2 10038  55.0000 180.0000 0000000   0.0000 120.0000  4.93230269    15
CMOB_L_00005004-04
1 10039U 26510WX  26075.70052083  .00000000  00000+0  00000-0 0  9991
2 10039  55.0000 180.0000 0000000   0.0000 150.0000  4.93230269    19
CMOB_L_00005004-05
1 10040U 22072XK  26075.70052083  .00000000  00000+0  00000-0 0  9992
2 10040  55.0000 180.0000 0000000   0.0000 180.0000  4.93230269    14
CMOB_L_00005004-06
1 10041U 26817YL  26075.70052083  .00000000  00000+0  00000-0 0  9994
2 10041  55.0000 180.0000 0000000   0.0000 210.0000  4.93230269    19
CMOB_L_00005004-07
1 10042U 24729FK  26075.70052083  .00000000  00000+0  00000-0 0  9995
2 10042  55.0000 180.0000 0000000   0.0000 240.0000  4.93230269    13
CMOB_L_00005004-08
1 10043U 23919PR  26075.70052083  .00000000  00000+0  00000-0 0  9996
2 10043  55.0000 180.0000 0000000   0.0000 270.0000  4.93230269    17
CMOB_L_00005004-09
1 10044U 26486QO  26075.70052083  .00000000  00000+0  00000-0 0  9999
2 10044  55.0000 180.0000 0000000   0.0000 300.0000  4.93230269    12
CMOB_L_00005004-10
1 10045U 23434LY  26075.70052083  .00000000  00000+0  00000-0 0  9990
2 10045  55.0000 180.0000 0000000   0.0000 330.0000  4.93230269    16
CMOB_L_00005004-11
1 10046U 23406TZ  26075.70052083  .00000000  00000+0  00000-0 0  9990
2 10046  55.0000 180.0000 0000000   0.0000   0.0000  4.93230269    11
CMOB_L_00005004-12
1 10047U 26745LC  26075.70052083  .00000000  00000+0  00000-0 0  9990
2 10047  55.0000 180.0000 0000000   0.0000  30.0000  4.93230269    15
CMOB_L_00005005-01
1 10048U 25862OH  26075.70052083  .00000000  00000+0  00000-0 0  9990
2 10048  55.0000 240.0000 0000000   0.0000  80.0000  4.93230269    18
CMOB_L_00005005-02
1 10049U 24951OI  26075.70052083  .00000000  00000+0  00000-0 0  9999
2 10049  55.0000 240.0000 0000000   0.0000 110.0000  4.93230269    13
CMOB_L_00005005-03
1 10050U 24906JH  26075.70052083  .00000000  00000+0  00000-0 0  9991
2 10050  55.0000 240.0000 0000000   0.0000 140.0000  4.93230269    18
CMOB_L_00005005-04
1 10051U 25473MG  26075.70052083  .00000000  00000+0  00000-0 0  9992
2 10051  55.0000 240.0000 0000000   0.0000 170.0000  4.93230269    12
CMOB_L_00005005-05
1 10052U 26047WM  26075.70052083  .00000000  00000+0  00000-0 0  9991
2 10052  55.0000 240.0000 0000000   0.0000 200.0000  4.93230269    17
CMOB_L_00005005-06
1 10053U 24056TX  26075.70052083  .00000000  00000+0  00000-0 0  9990
2 10053  55.0000 240.0000 0000000   0.0000 230.0000  4.93230269    11
CMOB_L_00005005-07
1 10054U 24649HM  26075.70052083  .00000000  00000+0  00000-0 0  9999
2 10054  55.0000 240.0000 0000000   0.0000 260.0000  4.93230269    15
CMOB_L_00005005-08
1 10055U 25103MV  26075.70052083  .00000000  00000+0  00000-0 0  9996
2 10055  55.0000 240.0000 0000000   0.0000 290.0000  4.93230269    19
CMOB_L_00005005-09
1 10056U 22610GB  26075.70052083  .00000000  00000+0  00000-0 0  9997
2 10056  55.0000 240.0000 0000000   0.0000 320.0000  4.93230269    14
CMOB_L_00005005-10
1 10057U 25752YW  26075.70052083  .00000000  00000+0  00000-0 0  9998
2 10057  55.0000 240.0000 0000000   0.0000 350.0000  4.93230269    18
CMOB_L_00005005-11
1 10058U 23753QV  26075.70052083  .00000000  00000+0  00000-0 0  9998
2 10058  55.0000 240.0000 0000000   0.0000  20.0000  4.93230269    13
CMOB_L_00005005-12
1 10059U 24732WX  26075.70052083  .00000000  00000+0  00000-0 0  9997
2 10059  55.0000 240.0000 0000000   0.0000  50.0000  4.93230269    17
CMOB_L_00005006-01
1 10060U 24695XM  26075.70052083  .00000000  00000+0  00000-0 0  9997
2 10060  55.0000 300.0000 0000000   0.0000 100.0000  4.93230269    12
CMOB_L_00005006-02
1 10061U 24089RF  26075.70052083  .00000000  00000+0  00000-0 0  9995
2 10061  55.0000 300.0000 0000000   0.0000 130.0000  4.93230269    16
CMOB_L_00005006-03
1 10062U 24843LN  26075.70052083  .00000000  00000+0  00000-0 0  9994
2 10062  55.0000 300.0000 0000000   0.0000 160.0000  4.93230269    10
CMOB_L_00005006-04
1 10063U 24934AE  26075.70052083  .00000000  00000+0  00000-0 0  9996
2 10063  55.0000 300.0000 0000000   0.0000 190.0000  4.93230269    14
CMOB_L_00005006-05
1 10064U 23379UH  26075.70052083  .00000000  00000+0  00000-0 0  9999
2 10064  55.0000 300.0000 0000000   0.0000 220.0000  4.93230269    19
CMOB_L_00005006-06
1 10065U 26759WG  26075.70052083  .00000000  00000+0  00000-0 0  9995
2 10065  55.0000 300.0000 0000000   0.0000 250.0000  4.93230269    13
CMOB_L_00005006-07
1 10066U 23910JA  26075.70052083  .00000000  00000+0  00000-0 0  9992
2 10066  55.0000 300.0000 0000000   0.0000 280.0000  4.93230269    17
CMOB_L_00005006-08
1 10067U 24924QC  26075.70052083  .00000000  00000+0  00000-0 0  9999
2 10067  55.0000 300.0000 0000000   0.0000 310.0000  4.93230269    12
CMOB_L_00005006-09
1 10068U 26284HA  26075.70052083  .00000000  00000+0  00000-0 0  9991
2 10068  55.0000 300.0000 0000000   0.0000 340.0000  4.93230269    16
CMOB_L_00005006-10
1 10069U 24854EP  26075.70052083  .00000000  00000+0  00000-0 0  9993
2 10069  55.0000 300.0000 0000000   0.0000  10.0000  4.93230269    11
CMOB_L_00005006-11
1 10070U 25399IO  26075.70052083  .00000000  00000+0  00000-0 0  9990
2 10070  55.0000 300.0000 0000000   0.0000  40.0000  4.93230269    16
CMOB_L_00005006-12
1 10071U 25174EY  26075.70052083  .00000000  00000+0  00000-0 0  9992
2 10071  55.0000 300.0000 0000000   0.0000  70.0000  4.93230269    10
